[{"OBJECT_NAME":"STARLINK-5021","OBJECT_ID":"2022-119S","EPOCH":"2026-03-09T20:23:13.321536","MEAN_MOTION":15.08824096,"ECCENTRICITY":0.00016356,"INCLINATION":53.2152,"RA_OF_ASC_NODE":273.1611,"ARG_OF_PERICENTER":78.2188,"MEAN_ANOMALY":281.8987,"EPHEMERIS_TYPE":0,"CLASSIFICATION_TYPE":"U","NORAD_CAT_ID":53902,"ELEMENT_SET_NO":999,"REV_AT_EPOCH":19241,"BSTAR":0.0003580786,"MEAN_MOTION_DOT":5.413e-5,"MEAN_MOTION_DDOT":0},{"OBJECT_NAME":"UPPER FREE FLYER","OBJECT_ID":"2018-099F","EPOCH":"2026-03-09T16:53:56.769792","MEAN_MOTION":15.10728091,"ECCENTRICITY":0.00115819,"INCLINATION":97.4495,"RA_OF_ASC_NODE":120.4613,"ARG_OF_PERICENTER":289.4209,"MEAN_ANOMALY":70.5769,"EPHEMERIS_TYPE":0,"CLASSIFICATION_TYPE":"U","NORAD_CAT_ID":43763,"ELEMENT_SET_NO":999,"REV_AT_EPOCH":39752,"BSTAR":0.00029221901,"MEAN_MOTION_DOT":4.788e-5,"MEAN_MOTION_DDOT":0}]
